CRE (WAAS/PRN 138)      
1 28868U 05036A   23228.04292560 -.00000080  00000+0  00000+0 0  9998
2 28868   1.6377  89.3076 0002612  30.5966 112.4042  1.00272559 65760
IOR-W (EGNOS/PRN 126)   
1 28899U 05044A   23227.72827024  .00000005  00000+0  00000+0 0  9990
2 28899   3.8484  40.6235 0002544 115.3942 133.9252  1.00270850 65105
QZS-1 (QZSS/PRN 183)    
1 37158U 10045A   23224.51019722 -.00000072  00000+0  00000+0 0  9992
2 37158  42.7913 127.6971 0037647 277.2224 272.4955  0.88387770 47281
GSAT-8 (GAGAN/PRN 127)  
1 37605U 11022A   23228.23105115  .00000079  00000+0  00000+0 0  9996
2 37605   0.0129 107.6545 0003940 142.9989 211.9323  1.00273533 44857
LUCH 5A (SDCM/PRN 140)  
1 37951U 11074B   23228.38420687 -.00000054  00000+0  00000+0 0  9991
2 37951   6.0937  90.0280 0005004  47.4272 132.3127  1.00273318 42804
SES-5 (EGNOS/PRN 136)   
1 38652U 12036A   23228.04007573  .00000028  00000+0  00000+0 0  9997
2 38652   0.0184 310.4450 0001894 196.3257 196.8149  1.00270686 40676
GSAT-10 (GAGAN/PRN 128) 
1 38779U 12051B   23227.57921880 -.00000171  00000+0  00000+0 0  9997
2 38779   0.1064 271.5866 0001029  11.4072 332.2177  1.00270386 39890
LUCH 5B (SDCM/PRN 125)  
1 38977U 12061A   23228.34773375 -.00000140  00000+0  00000+0 0  9994
2 38977   8.2127  59.2860 0005633  97.4317 276.6606  1.00272992 39797
ASTRA 5B (EGNOS/PRN 123)
1 39617U 14011B   23227.98243731  .00000131  00000+0  00000+0 0  9999
2 39617   0.0642 300.5033 0003030 234.8407 165.9192  1.00271500 34486
LUCH 5V (SDCM/PRN 141)  
1 39727U 14023A   23227.36650875 -.00000276  00000+0  00000+0 0  9998
2 39727   2.5232  77.3773 0003162 115.5481 357.2474  1.00270045552110
GSAT-15 (GAGAN/PRN 139) 
1 41028U 15065A   23228.36965036 -.00000263  00000+0  00000+0 0  9997
2 41028   0.1066 272.5451 0002002 188.4627  90.0436  1.00270521 28477
E 117 W B (WAAS/PRN 131)
1 41589U 16038B   23228.04100799 -.00000017  00000+0  00000+0 0  9999
2 41589   0.0119 223.1009 0000362 241.4306 117.3950  1.00271836 26314
SES-15 (WAAS/PRN 133)   
1 42709U 17026A   23228.15256598  .00000054  00000+0  00000+0 0  9993
2 42709   0.0174  44.2653 0000890 136.3566  69.4270  1.00273208 23799
QZS-2 (QZSS/PRN 184)    
1 42738U 17028A   23227.95327187 -.00000128  00000+0  00000+0 0  9990
2 42738  41.0740 258.1427 0754401 269.8292 280.8769  1.00270048 22747
QZS-3 (QZSS/PRN 189)    
1 42917U 17048A   23228.48330446 -.00000353  00000+0  00000+0 0  9992
2 42917   0.0626 155.8326 0002491   4.9083 104.8987  1.00272525 21980
QZS-4 (QZSS/PRN 185)    
1 42965U 17062A   23228.23355292 -.00000337  00000+0  00000+0 0  9992
2 42965  40.6434 356.6882 0747114 268.9754 281.6644  1.00286859 21410
BEIDOU-3 G1 (PRN 130)   
1 43683U 18085A   23228.02006941 -.00000284  00000+0  00000+0 0  9998
2 43683   1.4723 125.7485 0003144 342.6733   2.9863  1.00275354 17660
BEIDOU-3 G2 (PRN 144)   
1 45344U 20017A   23228.43860738 -.00000145  00000+0  00000+0 0  9995
2 45344   2.0369  15.1872 0003100 142.4010  44.9290  1.00272541 12881
BEIDOU-3 G3 (PRN 143)   
1 45807U 20040A   23228.47707973 -.00000358  00000+0  00000+0 0  9996
2 45807   0.6330 339.8539 0004983 352.4431 274.6264  1.00271930 11695
GALAXY 30 (WAAS/PRN 135)
1 46114U 20056C   23228.03943903  .00000031  00000+0  00000+0 0  9999
2 46114   0.0155  88.7287 0002329  72.6076  52.0225  1.00272605 11015
